0 IRIDIUM 33 DEB
1 34360U 97051FC  13282.50933154  .00016856  00000-0  41189-2 0  4350
2 34360 086.3569 115.6393 0000374 282.8506 135.9675 14.52495946243732
0 IRIDIUM 33 DEB
1 34360U 97051FC  13283.01002156  .00013519  00000-0  33034-2 0  4360
2 34360 086.3569 115.4213 0000356 273.7639 241.4779 14.52505040243800
0 IRIDIUM 33 DEB
1 34360U 97051FC  13284.10925542  .00015183  00000-0  37083-2 0  4372
2 34360 086.3568 114.9428 0000329 249.0755 250.4290 14.52524835243964
0 IRIDIUM 33 DEB
1 34360U 97051FC  13285.33301089  .00012892  00000-0  31472-2 0  4383
2 34360 086.3566 114.4103 0000389 222.8619 191.7295 14.52552636244144
0 IRIDIUM 33 DEB
1 34360U 97051FC  13286.50437523  .00012775  00000-0  31168-2 0  4399
2 34360 086.3562 113.9003 0000466 207.9134 208.0975 14.52580074244318
0 IRIDIUM 33 DEB
1 34360U 97051FC  13287.75812645  .00019649  00000-0  47880-2 0  4406
2 34360 086.3559 113.3546 0000561 200.8909 287.2188 14.52614114244495
0 IRIDIUM 33 DEB
1 34360U 97051FC  13288.79116819  .00020057  00000-0  48830-2 0  4413
2 34360 086.3557 112.9047 0000652 194.8104 292.1200 14.52655315244649
0 IRIDIUM 33 DEB
1 34360U 97051FC  13289.96094862  .00018616  00000-0  45299-2 0  4421
2 34360 086.3555 112.3954 0000695 190.5562 289.9626 14.52687217244817
0 IRIDIUM 33 DEB
1 34360U 97051FC  13291.06790534  .00016855  00000-0  40985-2 0  4435
2 34360 086.3557 111.9133 0000828 186.2794 319.6266 14.52725584244978
0 IRIDIUM 33 DEB
1 34360U 97051FC  13292.49749936  .00017230  00000-0  41859-2 0  4443
2 34360 086.3557 111.2910 0000907 182.4632 235.2653 14.52767239245181
0 IRIDIUM 33 DEB
1 34360U 97051FC  13293.75068428  .00019562  00000-0  47479-2 0  4458
2 34360 086.3561 110.7452 0000994 180.0741 307.6593 14.52802056245366
0 IRIDIUM 33 DEB
1 34360U 97051FC  13294.77067510  .00023328  00000-0  56559-2 0  4467
2 34360 086.3564 110.3011 0001011 178.4247 240.6015 14.52833840245516
0 IRIDIUM 33 DEB
1 34360U 97051FC  13295.95394851  .00021267  00000-0  51528-2 0  4471
2 34360 086.3565 109.7856 0001138 174.5308 309.3802 14.52874797245682
